#cP2022 12  7  0  0  0.00000000      96 ORBIT IGS20 HLM  IGS
## 2239 259200.00000000   900.00000000 59920 0.0000000000000
+   31   G01G02G03G04G05G06G07G08G09G10G11G12G13G14G15G16G17
+        G18G19G20G21G22G23G24G25G26G27G29G30G31G32  0  0  0
+          0  0  0  0  0  0  0  0  0  0  0  0  0  0  0  0  0
+          0  0  0  0  0  0  0  0  0  0  0  0  0  0  0  0  0
+          0  0  0  0  0  0  0  0  0  0  0  0  0  0  0  0  0
++         2  2  2  2  2  2  2  2  2  2  3  3  2  3  2  2  2
++         3  2  2  3  2  3  2  2  2  2  2  2  2  2  0  0  0
++         0  0  0  0  0  0  0  0  0  0  0  0  0  0  0  0  0
++         0  0  0  0  0  0  0  0  0  0  0  0  0  0  0  0  0
++         0  0  0  0  0  0  0  0  0  0  0  0  0  0  0  0  0
%c G  cc GPS ccc cccc cccc cccc cccc ccccc ccccc ccccc ccccc
%c cc cc ccc ccc cccc cccc cccc cccc ccccc ccccc ccccc ccccc
%f  1.2500000  1.025000000  0.00000000000  0.000000000000000
%f  0.0000000  0.000000000  0.00000000000  0.000000000000000
%i    0    0    0    0      0      0      0      0         0
%i    0    0    0    0      0      0      0      0         0
/* RAPID ORBIT COMBINATION FROM WEIGHTED AVERAGE OF:        
/* cod emr esa gfz grg ngs usn whu                          
/* REFERENCED TO IGS TIME (IGST) AND TO WEIGHTED MEAN POLE: 
/* PCV:IGS20_2233 OL/AL:FES2004  NONE     Y  ORB:CMB CLK:CMB
*  2022 12  7  1 30  0.00000000
PG01  13437.556961 -18260.834616  13234.415742    241.273114  6  6  9  75       
PG02 -10633.260558  21650.910892 -10711.465315   -634.332222  5  7  8 116       
PG03  21944.461093 -12514.288016  -8149.313694   -375.139008 11  6  7  88       
PG04  11860.587559  -9599.573841 -21742.344411    -73.281982 10  9  3 112       
PG05 -25572.657123   4944.581121  -5679.678205   -107.097144  9  8  6 106       
PG06  -7478.480178 -18433.567095 -17488.211727    534.818306  8  7  6  84       
PG07   5644.818464 -25675.132829    440.785021    277.949896  8  5  5  93       
PG08  19590.961547    476.813407  18053.294639    -97.391746  6  6  5 122       
PG09    580.582517 -18022.382234 -19566.993049   -257.494706  7  7  6 100       
PG10   6969.401413  13412.333904  22021.334570    -15.006477  8  3  5 121       
PG11 -13853.034416  -6390.580743 -21734.974563    -52.235408 10  5  7  85       
PG12 -23119.266781  10725.489313  -7555.724664   -312.912441 11  8  8  74       
PG13 -20337.092670  -9399.212334  14233.716898    437.530252  7  8  7 125       
PG14  -4039.203346 -14894.279831  21623.370375    -72.267640  8  5  7  92       
PG15 -19617.845665   2084.341949  17461.092144     -6.253847  8 10  7  62       
PG16  25146.410838   1289.795379  -9447.098913   -526.456639 10  7  8  82       
PG17 -10418.265037 -21901.483983  11171.945233    683.880957  7  9  5 109       
PG18  -4773.348983  25938.766293   2396.884663    -49.363439  8  7  9 112       
PG19 -17824.722721 -19883.616728   -584.727915    247.119287  7  9  7 106       
PG20 -20588.821126  -2922.392829 -16373.186156    465.252193  9  8  7 102       
PG21  15319.073403  -9650.189852  19766.863491    154.439310 10  7  8  94       
PG22  19029.221749  18467.165466  -2297.534942    379.497400  6  7  7  58       
PG23  -5623.398870  16392.285957  20082.104956     -0.304901  8  7  5  92       
PG24 -14200.271089  14942.932292  16171.901179     27.251709  4  6  6 111       
PG25 -14704.014369  16060.874214 -15310.912520    399.641934  9  3  7 107       
PG26  18215.316161   7376.790680 -18112.894711    237.788046  9  2  7 113       
PG27  22107.247869  11178.192156   9894.237778    159.900297  9  4  2 111       
PG29  -3765.442505  16348.449164 -20612.056639   -572.275857  4  5 10 123       
PG30  -2784.917400 -23804.472308  11255.616113   -535.803013  9     4  71       
PG31   9090.455641  16924.403034 -18299.424834   -202.482245  9  6  6  73       
PG32  14254.906404  20974.703063   8384.579292   -320.873176  6  5     72       
*  2022 12  7  1 45  0.00000000
PG01  13244.892506 -16566.182027  15453.610668    241.268384  5  6  9  81       
PG02 -10672.132264  20192.789842 -13094.947457   -634.330626  5  7  8 120       
PG03  22731.005752 -12568.156138  -5396.305833   -375.139348 11  6  7  97       
PG04  13647.247284  -7898.478235 -21385.220118    -73.275668 10  8  4 113       
PG05 -24927.397228   4451.090941  -8382.755637   -107.098215  9  8  7  91       
PG06  -6981.557459 -20271.518337 -15553.886173    534.825511  7  6  6 104       
PG07   5932.512947 -25454.456353  -2420.215384    277.945201  7  6  5  98       
PG08  21014.956762   1832.689174  16317.664075    -97.394505  6  6  6 118       
PG09   2403.899232 -16637.914830 -20633.552729   -257.489323  7  6  6 104       
PG10   4620.457319  14221.878112  22104.419357    -15.007849  8  4  5 117       
PG11 -13221.755461  -8771.059261 -21296.930956    -52.241704  9  5  7  95       
PG12 -23832.551036  10677.797401  -4797.390462   -312.916481 11  9  8  58       
PG13 -21200.855749 -10658.058453  11946.348819    437.536153  6  7  7 124       
PG14  -1674.816875 -15594.472715  21430.762345    -72.262254  7  5  7  88       
PG15 -21157.916901    828.807952  15752.095146     -6.250764  8 10  8  84       
PG16  24051.574970   1735.308244 -11930.702496   -526.456031 10  6  8  86       
PG17  -9334.837183 -21073.214166  13568.542190    683.883275  7  9  5 112       
PG18  -5022.587030  25997.043999   -488.770315    -49.376461  8  7  9 119       
PG19 -17599.697872 -19927.127569   2281.858450    247.123735  6  9  7  98       
PG20 -18931.258061  -4032.689048 -18068.886583    465.250187  8  7  7 105       
PG21  15198.285786  -7422.340970  20893.658192    154.438619 10  7  7 104       
PG22  18958.209162  18739.520496    547.344802    379.504320  6  6  7  84       
PG23  -7743.294269  17074.177999  18752.856602     -0.304407  8  7  6 105       
PG24 -14207.682691  12901.847217  17841.938860     27.236427  3  6  6 113       
PG25 -16277.959012  16392.880425 -13148.838419    399.645219  9  4  7 105       
PG26  16303.180559   8322.076829 -19451.914692    237.788839  9     6 115       
PG27  22740.327789  11972.880743   7273.214991    159.891142  9  5  3 104       
PG29  -5494.701129  14689.216309 -21463.977874   -572.278131  5  5  9 124       
PG30  -2253.806698 -24864.836957   8766.737926   -535.802453  9     5  74       
PG31   8488.932860  18826.222711 -16597.882757   -202.483313  8  6  5  70       
PG32  13292.172320  20438.891519  10929.483622   -320.884984  6  5     88       
*  2022 12  7  2  0  0.00000000
PG01  13111.564054 -14625.482307  17397.119325    241.263642  5  6  9  57       
PG02 -10776.895717  18473.787951 -15246.999303   -634.328812  6  8  8 127       
PG03  23220.372223 -12542.610097  -2550.100983   -375.139704 10  6  7  97       
PG04  15472.473621  -6332.818542 -20660.527364    -73.269350  9  8  5 109       
PG05 -24040.455119   3800.307933 -10943.391024   -107.099816  9  8  8  80       
PG06  -6621.270431 -21900.867755 -13349.694223    534.832777  7  7  6  73       
PG07   6189.118772 -24924.637409  -5238.020274    277.940546  6  7  5 100       
PG08  22336.538172   2984.824268  14304.635609    -97.396249  6  6  6 114       
PG09   4376.011609 -15289.584163 -21347.241399   -257.483868  7  6  6 108       
PG10   2327.556197  15156.145400  21812.563557    -15.009446  8  5  5 109       
PG11 -12729.814424 -11111.943611 -20492.329381    -52.248014  9  4  6  84       
PG12 -24247.765594  10566.057782  -1956.440833   -312.920867 10  9  9  62       
PG13 -21940.273259 -11673.887965   9453.511002    437.542410  6  6  8 122       
PG14    612.345953 -16398.713024  20869.268249    -72.256831  7  6  8  85       
PG15 -22570.438689   -243.700322  13766.749545     -6.248143  8 10  8  83       
PG16  22729.029877   2318.396110 -14216.732682   -526.455497 10  6  8  97       
PG17  -8018.077431 -20137.719326  15736.465502    683.886189  6  9  4 112       
PG18  -5218.887169  25744.484420  -3365.940100    -49.389537  8  8  8 122       
PG19 -17143.347364 -19762.491664   5109.688771    247.128358  6  9  7  85       
PG20 -17183.150012  -5314.054526 -19450.803279    465.247809  6  7  6 107       
PG21  15189.734159  -5094.500703  21673.664067    154.437758  9  7  6  96       
PG22  18667.445173  18797.044276   3382.952829    379.511525  5  6  7  94       
PG23  -9669.924407  17799.872184  17099.342581     -0.303975  8  7  6 101       
PG24 -14300.763593  10691.410272  19192.298440     27.221095  3  7  6 103       
PG25 -17599.834668  16703.965202 -10761.052120    399.648509  9  5  7  88       
PG26  14319.174989   9418.237113 -20461.792913    237.789643  9     6 111       
PG27  23175.763606  12545.971784   4529.059670    159.881998  9  5  5 102       
PG29  -7368.166874  13077.552672 -21947.534044   -572.280214  5  6  9 119       
PG30  -1815.249032 -25662.609098   6125.295773   -535.801886  9     6  37       
PG31   8015.082435  20552.911256 -14608.622780   -202.484279  8  6  4  66       
PG32  12083.601538  19787.734565  13289.608535   -320.896762  6  5     87       
EOF
